GAOFEN-5 01             
1 43461U 18043A   26112.91432165  .00000231  00000+0  57671-4 0  9992
2 43461  98.4533  83.3549 0000641 217.1968 142.9188 14.60564711423624
GAOFEN-6                
1 43484U 18048A   26112.91068073  .00000207  00000+0  36638-4 0  9998
2 43484  97.7791 177.6096 0012080   1.6448 358.4800 14.76563347425235
GAOFEN-11 01            
1 43585U 18063A   26112.94090108  .00012020  00000+0  18959-3 0  9995
2 43585  97.1330 180.0305 0004655 156.3038 203.8431 15.53666533431768
ICESAT-2                
1 43613U 18070A   26112.89074485  .00002339  00000+0  84785-4 0  9992
2 43613  92.0020 276.0641 0002582  58.7545 301.3957 15.28291156424018
HYSIS                   
1 43719U 18096A   26112.92489691  .00000342  00000+0  53729-4 0  9996
2 43719  97.9864 180.0964 0000903  71.9641 288.1669 14.78658705399256
KAZSTSAT                
1 43783U 18099AB  26112.85572191  .00000894  00000+0  76864-4 0  9997
2 43783  97.4377 147.2830 0003657 205.2650 154.8396 14.99767470403018
SAUDISAT 5A             
1 43831U 18102A   26112.95012975  .00004031  00000+0  15255-3 0  9999
2 43831  97.3105 175.6067 0008822 339.2795  20.8086 15.27473040407240
SAUDISAT 5B             
1 43833U 18102C   26112.91331591  .00003813  00000+0  14319-3 0  9992
2 43833  97.3206 178.5404 0009598 341.1758  18.9125 15.27759074407351
GAOFEN-10R              
1 44622U 19066A   26112.96162034  .00000906  00000+0  11848-3 0  9992
2 44622  98.0460  66.1570 0004829 331.3568  28.7379 14.82931768354191
CARTOSAT-3              
1 44804U 19081A   26112.89774780  .00003137  00000+0  15183-3 0  9995
2 44804  97.4340 175.6395 0011546 351.4066   8.6969 15.19262788355074
GAOFEN-12 01            
1 44819U 19082A   26112.99468594  .00000268  00000+0  41752-4 0  9990
2 44819  97.8127 120.8297 0001252 129.1497 230.9827 14.80411618345922
CSG-1                   
1 44873U 19092A   26112.96275906  .00000297  00000+0  43875-4 0  9991
2 44873  97.8886 297.3638 0001283  92.3880 267.7480 14.82150612343291
NEMO-HD                 
1 46277U 20061F   26112.91280932  .00007686  00000+0  17362-3 0  9999
2 46277  97.1959 175.4580 0001249 131.8002 228.3353 15.43465357313454
SENTINEL-6A             
1 46984U 20086A   26112.72966336 -.00000044  00000+0  73044-4 0  9991
2 46984  66.0408 250.2365 0007763 270.3565  89.6560 12.80930867253223
GAOFEN-12 02            
1 48079U 21026A   26112.93230171  .00000277  00000+0  43287-4 0  9990
2 48079  97.9927 111.3423 0006102  62.3102 297.8728 14.80249768273588
PLEIADES NEO 3          
1 48268U 21034A   26112.94405606  .00000285  00000+0  42820-4 0  9998
2 48268  97.8926 188.5034 0001324  94.7810 265.3554 14.81674933269473
PLEIADES NEO 4          
1 49070U 21073E   26112.77521564  .00000379  00000+0  54748-4 0  9992
2 49070  97.8924 188.3333 0001352  93.9580 266.1787 14.81672355253161
LANDSAT 9               
1 49260U 21088A   26112.91782672  .00000244  00000+0  64190-4 0  9997
2 49260  98.1877 183.9730 0001228 103.9170 256.2166 14.57117880242950
CSG-2                   
1 51444U 22008A   26112.92898161  .00000633  00000+0  86091-4 0  9995
2 51444  97.8884 297.3267 0001419  83.2815 276.8560 14.82149103228405
GAOFEN-12 03            
1 52912U 22069A   26112.95142751  .00000471  00000+0  69100-4 0  9995
2 52912  97.8339   2.1984 0001532  45.2968 314.8368 14.79942315206443
SWOT                    
1 54754U 22173A   26112.96850276  .00000062  00000+0  43478-4 0  9992
2 54754  77.6074 109.8510 0000763 161.2376 198.8804 14.00170154171420
GAOFEN-12 04            
1 57654U 23123A   26112.90744863  .00000713  00000+0  10078-3 0  9990
2 57654  97.9131  31.7216 0001265  88.4792 271.6565 14.80116683144459
PARS 1                  
1 59065U 24039Q   26112.94369558  .00009179  00000+0  19936-3 0  9990
2 59065  97.4808  92.1846 0008118 325.8742  34.1983 15.44562302120117
RESURS-P 4              
1 59371U 24061A   26112.93887516  .00002550  00000+0  85539-4 0  9992
2 59371  97.2716  61.8286 0002779  65.6363 294.5169 15.31798431115302
LEGION 1                
1 59625U 24081A   26112.94067900  .00002975  00000+0  15502-3 0  9997
2 59625  97.5022 191.3809 0009475 203.2161 156.8645 15.16730343109160
LEGION 2                
1 59626U 24081B   26112.90879071  .00003184  00000+0  16453-3 0  9993
2 59626  97.5024 191.4376 0011065 175.8075 184.3253 15.16959432109162
ALOS-4 (DAICHI-4)       
1 60182U 24123A   26112.90243301  .00000466  00000+0  69321-4 0  9993
2 60182  97.9204 210.8608 0001635 102.2737 257.8658 14.79460285 97702
LEGION 3                
1 60452U 24146A   26112.90503974  .00002643  00000+0  15032-3 0  9991
2 60452  45.0020 326.9475 0008428 211.8308 148.2062 15.15612814 93639
LEGION 4                
1 60453U 24146B   26112.90337468  .00003683  00000+0  20417-3 0  9993
2 60453  45.0018  58.8045 0014275 359.8258   0.2614 15.15565739 92480
SENTINEL-2C             
1 60989U 24157A   26112.92779775  .00000067  00000+0  42171-4 0  9997
2 60989  98.5636 188.4987 0001467 104.4314 255.7032 14.30815279 85086
IONOSFERA-M 1           
1 61735U 24199A   26112.91740772  .00000027  00000+0  31586-4 0  9991
2 61735  98.7248 346.6523 0000657  21.7038 338.4168 14.22743673119845
IONOSFERA-M 2           
1 61736U 24199B   26112.88150132  .00000028  00000+0  32318-4 0  9998
2 61736  98.7247 346.5278 0001881 101.7446 258.3943 14.22746466122964
BIOMASS                 
1 63772U 25090A   26112.80582114  .00000711  00000+0  13437-3 0  9991
2 63772  98.0749 300.9213 0001442  89.4698 270.6671 14.67375292 52560
GOSAT-GW (IBUKI GW)     
1 64694U 25141A   26112.89499744  .00000507  00000+0  97715-4 0  9992
2 64694  98.0547  51.1187 0001446  84.9013 275.2357 14.67561900 43734
IONOSFERA-M 3           
1 64876U 25155A   26112.92008223  .00000056  00000+0  44965-4 0  9999
2 64876  98.5987  76.2300 0002095  50.3850 309.7513 14.21476375 38553
IONOSFERA-M 4           
1 64877U 25155B   26112.95500319  .00000058  00000+0  46190-4 0  9990
2 64877  98.5986  76.1820 0001500  58.3694 301.7630 14.21478367 38558
MICROCARB               
1 64899U 25156A   26112.14897863  .00000413  00000+0  73192-4 0  9996
2 64899  97.9840 190.2861 0017805  91.8247 268.5000 14.72264112 39726
CO3D 3                  
1 64900U 25156B   26112.96231684  .00004278  00000+0  20065-3 0  9995
2 64900  97.4322 192.4487 0001325  54.6986 305.4373 15.20198253 41143
CO3D 4                  
1 64901U 25156C   26112.96247940  .00003514  00000+0  16540-3 0  9993
2 64901  97.4319 192.4490 0001929 108.2234 251.9211 15.20193026 41145
CO3D 2                  
1 64902U 25156D   26112.92911889  .00000711  00000+0  35962-4 0  9996
2 64902  97.4326 192.3146 0000766  54.7457 305.3850 15.20210020 41137
CO3D 1                  
1 64903U 25156E   26103.64843334  .00003151  00000+0  12932-3 0  9997
2 64903  98.0928 182.3847 0110033   5.8142 354.4339 15.19681462 39726
SENTINEL-6B             
1 66514U 25264A   26112.73000702 -.00000043  00000+0  80008-4 0  9999
2 66514  66.0409 250.3620 0007926 269.7576  90.2531 12.80930763 20060
CSG-3                   
1 67304U 26001A   26112.50286583  .00000233  00000+0  35805-4 0  9990
2 67304  97.8885 296.9100 0001344  86.7671 273.3696 14.82151890 16216
